[{"OBJECT_NAME":"TIANQI-22","OBJECT_ID":"2023-135B","EPOCH":"2026-03-09T19:41:12.033888","MEAN_MOTION":14.23087857,"ECCENTRICITY":0.00131339,"INCLINATION":49.9676,"RA_OF_ASC_NODE":210.6305,"ARG_OF_PERICENTER":271.8708,"MEAN_ANOMALY":88.07,"EPHEMERIS_TYPE":0,"CLASSIFICATION_TYPE":"U","NORAD_CAT_ID":57793,"ELEMENT_SET_NO":999,"REV_AT_EPOCH":13047,"BSTAR":9.8333486e-5,"MEAN_MOTION_DOT":6.4e-7,"MEAN_MOTION_DDOT":0},{"OBJECT_NAME":"BLITS DEB","OBJECT_ID":"2009-049J","EPOCH":"2026-03-06T15:05:33.448704","MEAN_MOTION":14.22679349,"ECCENTRICITY":0.00032182,"INCLINATION":98.7538,"RA_OF_ASC_NODE":29.5517,"ARG_OF_PERICENTER":237.9799,"MEAN_ANOMALY":122.1067,"EPHEMERIS_TYPE":0,"CLASSIFICATION_TYPE":"U","NORAD_CAT_ID":39119,"ELEMENT_SET_NO":999,"REV_AT_EPOCH":68004,"BSTAR":9.248618e-5,"MEAN_MOTION_DOT":1.63e-6,"MEAN_MOTION_DDOT":0}]
